[{"OBJECT_NAME":"ONEWEB-0396","OBJECT_ID":"2021-132H","EPOCH":"2026-03-09T18:27:14.776128","MEAN_MOTION":13.18686134,"ECCENTRICITY":0.0001685,"INCLINATION":87.9253,"RA_OF_ASC_NODE":355.1971,"ARG_OF_PERICENTER":76.083,"MEAN_ANOMALY":284.049,"EPHEMERIS_TYPE":0,"CLASSIFICATION_TYPE":"U","NORAD_CAT_ID":50476,"ELEMENT_SET_NO":999,"REV_AT_EPOCH":20853,"BSTAR":0.00010296459,"MEAN_MOTION_DOT":5.3e-7,"MEAN_MOTION_DDOT":0},{"OBJECT_NAME":"DELTA 1 DEB","OBJECT_ID":"1975-052MH","EPOCH":"2026-03-08T05:29:01.444416","MEAN_MOTION":13.54683378,"ECCENTRICITY":0.01815299,"INCLINATION":100.3612,"RA_OF_ASC_NODE":171.0785,"ARG_OF_PERICENTER":1.554,"MEAN_ANOMALY":358.6123,"EPHEMERIS_TYPE":0,"CLASSIFICATION_TYPE":"U","NORAD_CAT_ID":42648,"ELEMENT_SET_NO":999,"REV_AT_EPOCH":59874,"BSTAR":0.0089793502,"MEAN_MOTION_DOT":6.791e-5,"MEAN_MOTION_DDOT":0}]
